[{"OBJECT_NAME":"OBJECT F","OBJECT_ID":"2025-108F","EPOCH":"2026-03-09T23:20:53.522880","MEAN_MOTION":15.23792837,"ECCENTRICITY":0.00112374,"INCLINATION":97.4753,"RA_OF_ASC_NODE":146.7616,"ARG_OF_PERICENTER":356.2264,"MEAN_ANOMALY":3.8886,"EPHEMERIS_TYPE":0,"CLASSIFICATION_TYPE":"U","NORAD_CAT_ID":64092,"ELEMENT_SET_NO":999,"REV_AT_EPOCH":4437,"BSTAR":0.0010326251,"MEAN_MOTION_DOT":0.00024889,"MEAN_MOTION_DDOT":0},{"OBJECT_NAME":"OBJECT D","OBJECT_ID":"2025-234D","EPOCH":"2026-03-09T21:45:39.162528","MEAN_MOTION":15.22662806,"ECCENTRICITY":0.00034878,"INCLINATION":97.4338,"RA_OF_ASC_NODE":138.0864,"ARG_OF_PERICENTER":166.6055,"MEAN_ANOMALY":193.5275,"EPHEMERIS_TYPE":0,"CLASSIFICATION_TYPE":"U","NORAD_CAT_ID":66056,"ELEMENT_SET_NO":999,"REV_AT_EPOCH":2155,"BSTAR":0.00081390028,"MEAN_MOTION_DOT":0.00018914,"MEAN_MOTION_DDOT":0}]
